[{"OBJECT_NAME":"NIMIQ 2","OBJECT_ID":"2002-062A","EPOCH":"2026-03-15T01:06:17.604576","MEAN_MOTION":1.00271974,"ECCENTRICITY":0.0006345,"INCLINATION":9.2281,"RA_OF_ASC_NODE":57.8683,"ARG_OF_PERICENTER":299.5783,"MEAN_ANOMALY":82.5986,"EPHEMERIS_TYPE":0,"CLASSIFICATION_TYPE":"U","NORAD_CAT_ID":27632,"ELEMENT_SET_NO":999,"REV_AT_EPOCH":4324,"BSTAR":0,"MEAN_MOTION_DOT":-6.4e-7,"MEAN_MOTION_DDOT":0},{"OBJECT_NAME":"USA 167","OBJECT_ID":"2003-008A","EPOCH":"2026-03-14T17:05:55.138272","MEAN_MOTION":1.00271193,"ECCENTRICITY":0.00055052,"INCLINATION":10.7738,"RA_OF_ASC_NODE":44.2387,"ARG_OF_PERICENTER":292.9349,"MEAN_ANOMALY":329.8288,"EPHEMERIS_TYPE":0,"CLASSIFICATION_TYPE":"U","NORAD_CAT_ID":27691,"ELEMENT_SET_NO":999,"REV_AT_EPOCH":582,"BSTAR":0,"MEAN_MOTION_DOT":1.0e-7,"MEAN_MOTION_DDOT":0},{"OBJECT_NAME":"TITAN 4 CENTAUR R/B","OBJECT_ID":"2003-012B","EPOCH":"2026-03-14T01:08:07.057824","MEAN_MOTION":1.00579789,"ECCENTRICITY":0.00246937,"INCLINATION":11.048,"RA_OF_ASC_NODE":23.8513,"ARG_OF_PERICENTER":277.0434,"MEAN_ANOMALY":82.7077,"EPHEMERIS_TYPE":0,"CLASSIFICATION_TYPE":"U","NORAD_CAT_ID":27712,"ELEMENT_SET_NO":999,"REV_AT_EPOCH":2483,"BSTAR":0,"MEAN_MOTION_DOT":1.18e-6,"MEAN_MOTION_DDOT":0},{"OBJECT_NAME":"INSAT-3A","OBJECT_ID":"2003-013A","EPOCH":"2026-03-14T21:04:03.336096","MEAN_MOTION":0.99806025,"ECCENTRICITY":0.00110715,"INCLINATION":8.6027,"RA_OF_ASC_NODE":62.0231,"ARG_OF_PERICENTER":307.7982,"MEAN_ANOMALY":240.6725,"EPHEMERIS_TYPE":0,"CLASSIFICATION_TYPE":"U","NORAD_CAT_ID":27714,"ELEMENT_SET_NO":999,"REV_AT_EPOCH":8378,"BSTAR":0,"MEAN_MOTION_DOT":-3.36e-6,"MEAN_MOTION_DDOT":0},{"OBJECT_NAME":"ASIASAT 4","OBJECT_ID":"2003-014A","EPOCH":"2026-03-14T19:25:26.860224","MEAN_MOTION":1.00270783,"ECCENTRICITY":0.00026614,"INCLINATION":4.4635,"RA_OF_ASC_NODE":76.9264,"ARG_OF_PERICENTER":279.572,"MEAN_ANOMALY":254.8287,"EPHEMERIS_TYPE":0,"CLASSIFICATION_TYPE":"U","NORAD_CAT_ID":27718,"ELEMENT_SET_NO":999,"REV_AT_EPOCH":4435,"BSTAR":0,"MEAN_MOTION_DOT":-2.21e-6,"MEAN_MOTION_DDOT":0},{"OBJECT_NAME":"SL-12 R/B(2)","OBJECT_ID":"2003-015F","EPOCH":"2026-03-15T05:40:13.835136","MEAN_MOTION":1.00281773,"ECCENTRICITY":0.00101123,"INCLINATION":12.6455,"RA_OF_ASC_NODE":21.0766,"ARG_OF_PERICENTER":32.1877,"MEAN_ANOMALY":336.1267,"EPHEMERIS_TYPE":0,"CLASSIFICATION_TYPE":"U","NORAD_CAT_ID":27780,"ELEMENT_SET_NO":999,"REV_AT_EPOCH":8356,"BSTAR":0,"MEAN_MOTION_DOT":-3.35e-6,"MEAN_MOTION_DDOT":0},{"OBJECT_NAME":"GSAT-2","OBJECT_ID":"2003-018A","EPOCH":"2026-03-14T22:34:32.159136","MEAN_MOTION":0.99839821,"ECCENTRICITY":0.00117583,"INCLINATION":10.9939,"RA_OF_ASC_NODE":42.4955,"ARG_OF_PERICENTER":336.3633,"MEAN_ANOMALY":211.4517,"EPHEMERIS_TYPE":0,"CLASSIFICATION_TYPE":"U","NORAD_CAT_ID":27807,"ELEMENT_SET_NO":999,"REV_AT_EPOCH":8349,"BSTAR":0,"MEAN_MOTION_DOT":-4.1e-7,"MEAN_MOTION_DDOT":0},{"OBJECT_NAME":"HELLAS-SAT 2","OBJECT_ID":"2003-020A","EPOCH":"2026-03-15T04:59:55.200192","MEAN_MOTION":1.00272147,"ECCENTRICITY":0.00071176,"INCLINATION":7.1201,"RA_OF_ASC_NODE":68.9979,"ARG_OF_PERICENTER":251.0063,"MEAN_ANOMALY":277.7778,"EPHEMERIS_TYPE":0,"CLASSIFICATION_TYPE":"U","NORAD_CAT_ID":27811,"ELEMENT_SET_NO":999,"REV_AT_EPOCH":4190,"BSTAR":0,"MEAN_MOTION_DOT":-8.0e-7,"MEAN_MOTION_DDOT":0},{"OBJECT_NAME":"THURAYA-2","OBJECT_ID":"2003-026A","EPOCH":"2026-03-15T00:07:15.766176","MEAN_MOTION":1.0027276,"ECCENTRICITY":0.00035836,"INCLINATION":8.6959,"RA_OF_ASC_NODE":32.343,"ARG_OF_PERICENTER":317.7171,"MEAN_ANOMALY":228.3587,"EPHEMERIS_TYPE":0,"CLASSIFICATION_TYPE":"U","NORAD_CAT_ID":27825,"ELEMENT_SET_NO":999,"REV_AT_EPOCH":8340,"BSTAR":0,"MEAN_MOTION_DOT":1.3e-6,"MEAN_MOTION_DDOT":0},{"OBJECT_NAME":"OPTUS C1","OBJECT_ID":"2003-028B","EPOCH":"2026-03-15T05:46:38.617536","MEAN_MOTION":1.002704,"ECCENTRICITY":0.0006146,"INCLINATION":6.6535,"RA_OF_ASC_NODE":70.5396,"ARG_OF_PERICENTER":287.8531,"MEAN_ANOMALY":56.8307,"EPHEMERIS_TYPE":0,"CLASSIFICATION_TYPE":"U","NORAD_CAT_ID":27831,"ELEMENT_SET_NO":999,"REV_AT_EPOCH":5211,"BSTAR":0,"MEAN_MOTION_DOT":-1.49e-6,"MEAN_MOTION_DDOT":0},{"OBJECT_NAME":"USA 170","OBJECT_ID":"2003-040A","EPOCH":"2026-03-15T03:26:56.617440","MEAN_MOTION":1.00266891,"ECCENTRICITY":0.00014073,"INCLINATION":10.3012,"RA_OF_ASC_NODE":48.8209,"ARG_OF_PERICENTER":352.9334,"MEAN_ANOMALY":207.0378,"EPHEMERIS_TYPE":0,"CLASSIFICATION_TYPE":"U","NORAD_CAT_ID":27875,"ELEMENT_SET_NO":999,"REV_AT_EPOCH":3205,"BSTAR":0,"MEAN_MOTION_DOT":1.31e-6,"MEAN_MOTION_DDOT":0},{"OBJECT_NAME":"IABS R/B","OBJECT_ID":"2003-040C","EPOCH":"2026-03-15T04:27:31.035168","MEAN_MOTION":1.00736428,"ECCENTRICITY":0.00125758,"INCLINATION":13.3168,"RA_OF_ASC_NODE":13.1536,"ARG_OF_PERICENTER":314.8871,"MEAN_ANOMALY":45.0273,"EPHEMERIS_TYPE":0,"CLASSIFICATION_TYPE":"U","NORAD_CAT_ID":27877,"ELEMENT_SET_NO":999,"REV_AT_EPOCH":2500,"BSTAR":0,"MEAN_MOTION_DOT":-2.56e-6,"MEAN_MOTION_DDOT":0},{"OBJECT_NAME":"GALAXY 13 (HORIZONS-1)","OBJECT_ID":"2003-044A","EPOCH":"2026-03-15T06:02:41.680320","MEAN_MOTION":1.00271944,"ECCENTRICITY":0.00022124,"INCLINATION":1.1757,"RA_OF_ASC_NODE":85.1076,"ARG_OF_PERICENTER":268.88,"MEAN_ANOMALY":119.5092,"EPHEMERIS_TYPE":0,"CLASSIFICATION_TYPE":"U","NORAD_CAT_ID":27954,"ELEMENT_SET_NO":999,"REV_AT_EPOCH":4563,"BSTAR":0,"MEAN_MOTION_DOT":1.32e-6,"MEAN_MOTION_DDOT":0},{"OBJECT_NAME":"YAMAL 202","OBJECT_ID":"2003-053A","EPOCH":"2026-03-15T05:49:27.948576","MEAN_MOTION":1.00272975,"ECCENTRICITY":0.00052493,"INCLINATION":6.1062,"RA_OF_ASC_NODE":72.0785,"ARG_OF_PERICENTER":252.3499,"MEAN_ANOMALY":99.3035,"EPHEMERIS_TYPE":0,"CLASSIFICATION_TYPE":"U","NORAD_CAT_ID":28089,"ELEMENT_SET_NO":999,"REV_AT_EPOCH":8175,"BSTAR":0,"MEAN_MOTION_DOT":-7.7e-7,"MEAN_MOTION_DDOT":0},{"OBJECT_NAME":"YAMAL 201","OBJECT_ID":"2003-053B","EPOCH":"2026-03-15T00:13:37.655904","MEAN_MOTION":1.00306283,"ECCENTRICITY":0.00014457,"INCLINATION":9.3983,"RA_OF_ASC_NODE":56.4995,"ARG_OF_PERICENTER":227.3432,"MEAN_ANOMALY":318.3117,"EPHEMERIS_TYPE":0,"CLASSIFICATION_TYPE":"U","NORAD_CAT_ID":28094,"ELEMENT_SET_NO":999,"REV_AT_EPOCH":8393,"BSTAR":0,"MEAN_MOTION_DOT":-1.3e-7,"MEAN_MOTION_DDOT":0},{"OBJECT_NAME":"UFO 11 (USA 174)","OBJECT_ID":"2003-057A","EPOCH":"2026-03-14T22:33:32.253696","MEAN_MOTION":1.00272301,"ECCENTRICITY":0.00034158,"INCLINATION":8.8629,"RA_OF_ASC_NODE":34.2782,"ARG_OF_PERICENTER":301.1541,"MEAN_ANOMALY":250.9175,"EPHEMERIS_TYPE":0,"CLASSIFICATION_TYPE":"U","NORAD_CAT_ID":28117,"ELEMENT_SET_NO":999,"REV_AT_EPOCH":8150,"BSTAR":0,"MEAN_MOTION_DOT":-9.8e-7,"MEAN_MOTION_DDOT":0},{"OBJECT_NAME":"SL-12 R/B(2)","OBJECT_ID":"2003-060D","EPOCH":"2026-03-14T21:38:45.684960","MEAN_MOTION":1.00258496,"ECCENTRICITY":0.00186236,"INCLINATION":13.4828,"RA_OF_ASC_NODE":14.4376,"ARG_OF_PERICENTER":235.9242,"MEAN_ANOMALY":298.317,"EPHEMERIS_TYPE":0,"CLASSIFICATION_TYPE":"U","NORAD_CAT_ID":28139,"ELEMENT_SET_NO":999,"REV_AT_EPOCH":8108,"BSTAR":0,"MEAN_MOTION_DOT":8.9e-7,"MEAN_MOTION_DDOT":0},{"OBJECT_NAME":"USA 176 (DSP 22)","OBJECT_ID":"2004-004A","EPOCH":"2026-03-14T21:44:29.457600","MEAN_MOTION":1.00271695,"ECCENTRICITY":0.00021354,"INCLINATION":11.9343,"RA_OF_ASC_NODE":26.7541,"ARG_OF_PERICENTER":276.0471,"MEAN_ANOMALY":99.398,"EPHEMERIS_TYPE":0,"CLASSIFICATION_TYPE":"U","NORAD_CAT_ID":28158,"ELEMENT_SET_NO":999,"REV_AT_EPOCH":3199,"BSTAR":0,"MEAN_MOTION_DOT":-1.54e-6,"MEAN_MOTION_DDOT":0},{"OBJECT_NAME":"IUS R/B(2)","OBJECT_ID":"2004-004D","EPOCH":"2026-03-14T04:08:04.017408","MEAN_MOTION":0.99830002,"ECCENTRICITY":0.00044114,"INCLINATION":12.0469,"RA_OF_ASC_NODE":26.9651,"ARG_OF_PERICENTER":11.3264,"MEAN_ANOMALY":348.7122,"EPHEMERIS_TYPE":0,"CLASSIFICATION_TYPE":"U","NORAD_CAT_ID":28161,"ELEMENT_SET_NO":999,"REV_AT_EPOCH":2444,"BSTAR":0,"MEAN_MOTION_DOT":-2.59e-6,"MEAN_MOTION_DDOT":0},{"OBJECT_NAME":"ABS-4 (MOBISAT-1)","OBJECT_ID":"2004-007A","EPOCH":"2026-03-15T01:54:50.450112","MEAN_MOTION":1.00274737,"ECCENTRICITY":0.00054566,"INCLINATION":5.804,"RA_OF_ASC_NODE":73.1457,"ARG_OF_PERICENTER":285.2413,"MEAN_ANOMALY":264.0166,"EPHEMERIS_TYPE":0,"CLASSIFICATION_TYPE":"U","NORAD_CAT_ID":28184,"ELEMENT_SET_NO":999,"REV_AT_EPOCH":5139,"BSTAR":0,"MEAN_MOTION_DOT":4.1e-7,"MEAN_MOTION_DDOT":0},{"OBJECT_NAME":"EUTELSAT 139 WEST A","OBJECT_ID":"2004-008A","EPOCH":"2026-03-15T04:58:25.344192","MEAN_MOTION":1.00831357,"ECCENTRICITY":0.00023317,"INCLINATION":5.5886,"RA_OF_ASC_NODE":73.1265,"ARG_OF_PERICENTER":27.1319,"MEAN_ANOMALY":131.5794,"EPHEMERIS_TYPE":0,"CLASSIFICATION_TYPE":"U","NORAD_CAT_ID":28187,"ELEMENT_SET_NO":999,"REV_AT_EPOCH":8041,"BSTAR":0,"MEAN_MOTION_DOT":-2.3e-7,"MEAN_MOTION_DDOT":0},{"OBJECT_NAME":"RADUGA-1 7","OBJECT_ID":"2004-010A","EPOCH":"2026-03-15T00:01:27.967296","MEAN_MOTION":1.00174505,"ECCENTRICITY":0.0005136,"INCLINATION":13.5689,"RA_OF_ASC_NODE":21.5106,"ARG_OF_PERICENTER":246.6495,"MEAN_ANOMALY":320.0513,"EPHEMERIS_TYPE":0,"CLASSIFICATION_TYPE":"U","NORAD_CAT_ID":28194,"ELEMENT_SET_NO":999,"REV_AT_EPOCH":8047,"BSTAR":0,"MEAN_MOTION_DOT":7.9e-7,"MEAN_MOTION_DDOT":0},{"OBJECT_NAME":"SL-12 R/B(2)","OBJECT_ID":"2004-015D","EPOCH":"2026-03-15T00:41:38.768352","MEAN_MOTION":1.00710343,"ECCENTRICITY":0.00177434,"INCLINATION":13.2402,"RA_OF_ASC_NODE":15.0717,"ARG_OF_PERICENTER":326.2528,"MEAN_ANOMALY":33.3933,"EPHEMERIS_TYPE":0,"CLASSIFICATION_TYPE":"U","NORAD_CAT_ID":28240,"ELEMENT_SET_NO":999,"REV_AT_EPOCH":8045,"BSTAR":0,"MEAN_MOTION_DOT":1.1e-6,"MEAN_MOTION_DDOT":0},{"OBJECT_NAME":"AMC-11","OBJECT_ID":"2004-017A","EPOCH":"2026-03-15T06:13:48.114624","MEAN_MOTION":1.00272092,"ECCENTRICITY":0.00032384,"INCLINATION":0.0674,"RA_OF_ASC_NODE":79.6328,"ARG_OF_PERICENTER":287.1813,"MEAN_ANOMALY":148.3956,"EPHEMERIS_TYPE":0,"CLASSIFICATION_TYPE":"U","NORAD_CAT_ID":28252,"ELEMENT_SET_NO":999,"REV_AT_EPOCH":7992,"BSTAR":0,"MEAN_MOTION_DOT":-5.0e-7,"MEAN_MOTION_DDOT":0}]
